RAY 1.0                 
1 62627U 25009U   26068.84026028  .00005065  00000+0  23775-3 0  9993
2 62627  97.4036 148.9866 0007290 261.8547  98.1862 15.20062713 63580
AC1-002                 
1 66745U 25276CH  26068.70421404  .00003369  00000+0  16927-3 0  9992
2 66745  97.4267 143.9072 0002089  20.2082 339.9235 15.17945166 15313
